2025-08-05 18:05:58,064 - src.stk_interface.stk_manager - INFO - âœ… çº¦æŸå‚æ•°é…ç½®æˆåŠŸ
2025-08-05 18:05:58,064 - src.stk_interface.stk_manager - INFO - âœ… ä¼ æ„Ÿå™¨åˆ›å»ºæˆåŠŸ: Satellite01_Payload
2025-08-05 18:05:58,067 - src.constellation.constellation_manager - INFO - âœ… å«æ˜Ÿåˆ›å»ºæˆåŠŸ: Satellite01 (è½¨é“é¢1, ä½ç½®1)
2025-08-05 18:05:58,121 - src.stk_interface.stk_manager - INFO - ğŸ›°ï¸ åˆ›å»ºå«æ˜Ÿå¯¹è±¡: Satellite02
2025-08-05 18:06:00,160 - src.stk_interface.stk_manager - INFO - âœ… ä¼ æ’­å™¨ç±»å‹è®¾ç½®æˆåŠŸ
2025-08-05 18:06:00,161 - src.stk_interface.stk_manager - INFO - âœ… å‚æ•° semi_axis = 8171.0 éªŒè¯é€šè¿‡
2025-08-05 18:06:00,161 - src.stk_interface.stk_manager - INFO - âœ… å‚æ•° eccentricity = 0.0 éªŒè¯é€šè¿‡
2025-08-05 18:06:00,161 - src.stk_interface.stk_manager - INFO - âœ… å‚æ•° inclination = 51.856 éªŒè¯é€šè¿‡
2025-08-05 18:06:00,161 - src.stk_interface.stk_manager - INFO - âœ… å‚æ•° raan = 0.0 éªŒè¯é€šè¿‡
2025-08-05 18:06:00,161 - src.stk_interface.stk_manager - INFO - âœ… å‚æ•° arg_of_perigee = 0.0 éªŒè¯é€šè¿‡
2025-08-05 18:06:00,161 - src.stk_interface.stk_manager - INFO - âœ… å‚æ•° mean_anomaly = 120.0 éªŒè¯é€šè¿‡
2025-08-05 18:06:00,162 - src.stk_interface.stk_manager - INFO - ğŸ”„ ä½¿ç”¨Kepleriané«˜åº¦æ–¹æ³•...
2025-08-05 18:06:00,516 - src.stk_interface.stk_manager - INFO - âœ… Kepleriané«˜åº¦æ–¹æ³•æˆåŠŸ
2025-08-05 18:06:00,620 - src.stk_interface.stk_manager - INFO - âœ… åœ°é¢è½¨è¿¹é…ç½®æˆåŠŸ
2025-08-05 18:06:00,626 - src.stk_interface.stk_manager - INFO - âœ… å«æ˜Ÿåˆ›å»ºæˆåŠŸ: Satellite02
2025-08-05 18:06:00,739 - src.stk_interface.stk_manager - INFO - ğŸ”­ åˆ›å»ºä¼ æ„Ÿå™¨: Satellite02_Payload
2025-08-05 18:06:01,756 - src.stk_interface.stk_manager - INFO - âœ“ ä¼ æ„Ÿå™¨æ¨¡å¼è®¾ç½®ä¸ºåœ†é”¥
2025-08-05 18:06:01,969 - src.stk_interface.stk_manager - INFO - âœ“ è·å–Patternå¯¹è±¡æˆåŠŸï¼Œç±»å‹: <class 'win32com.client.CDispatch'>
2025-08-05 18:06:01,980 - src.stk_interface.stk_manager - INFO - âœ“ è®¾ç½®å¤–é”¥è§’æˆåŠŸ: 85.0Â°
2025-08-05 18:06:01,991 - src.stk_interface.stk_manager - INFO - âœ“ è®¾ç½®å†…é”¥è§’æˆåŠŸ: 66.1Â°
2025-08-05 18:06:02,018 - src.stk_interface.stk_manager - INFO - âœ“ è®¾ç½®æ—¶é’Ÿè§’çº¦æŸæˆåŠŸ: 0.0Â° - 360.0Â°
2025-08-05 18:06:02,021 - src.stk_interface.stk_manager - INFO - âœ… åœ†é”¥è§†åœºé…ç½®æˆåŠŸ
2025-08-05 18:06:02,059 - src.stk_interface.stk_manager - INFO - âœ… æŒ‡å‘å‚æ•°é…ç½®æˆåŠŸ
2025-08-05 18:06:02,645 - src.stk_interface.stk_manager - INFO - âœ“ è·ç¦»çº¦æŸè®¾ç½®æˆåŠŸ: 0-5000km
2025-08-05 18:06:02,650 - src.stk_interface.stk_manager - INFO - âœ… çº¦æŸå‚æ•°é…ç½®æˆåŠŸ
2025-08-05 18:06:02,650 - src.stk_interface.stk_manager - INFO - âœ… ä¼ æ„Ÿå™¨åˆ›å»ºæˆåŠŸ: Satellite02_Payload
2025-08-05 18:06:02,656 - src.constellation.constellation_manager - INFO - âœ… å«æ˜Ÿåˆ›å»ºæˆåŠŸ: Satellite02 (è½¨é“é¢1, ä½ç½®2)
2025-08-05 18:06:02,711 - src.stk_interface.stk_manager - INFO - ğŸ›°ï¸ åˆ›å»ºå«æ˜Ÿå¯¹è±¡: Satellite03
2025-08-05 18:06:04,741 - src.stk_interface.stk_manager - INFO - âœ… ä¼ æ’­å™¨ç±»å‹è®¾ç½®æˆåŠŸ
2025-08-05 18:06:04,741 - src.stk_interface.stk_manager - INFO - âœ… å‚æ•° semi_axis = 8171.0 éªŒè¯é€šè¿‡
2025-08-05 18:06:04,742 - src.stk_interface.stk_manager - INFO - âœ… å‚æ•° eccentricity = 0.0 éªŒè¯é€šè¿‡
2025-08-05 18:06:04,742 - src.stk_interface.stk_manager - INFO - âœ… å‚æ•° inclination = 51.856 éªŒè¯é€šè¿‡
2025-08-05 18:06:04,742 - src.stk_interface.stk_manager - INFO - âœ… å‚æ•° raan = 0.0 éªŒè¯é€šè¿‡
2025-08-05 18:06:04,742 - src.stk_interface.stk_manager - INFO - âœ… å‚æ•° arg_of_perigee = 0.0 éªŒè¯é€šè¿‡
2025-08-05 18:06:04,742 - src.stk_interface.stk_manager - INFO - âœ… å‚æ•° mean_anomaly = 240.0 éªŒè¯é€šè¿‡
2025-08-05 18:06:04,742 - src.stk_interface.stk_manager - INFO - ğŸ”„ ä½¿ç”¨Kepleriané«˜åº¦æ–¹æ³•...
2025-08-05 18:06:05,075 - src.stk_interface.stk_manager - INFO - âœ… Kepleriané«˜åº¦æ–¹æ³•æˆåŠŸ
2025-08-05 18:06:05,179 - src.stk_interface.stk_manager - INFO - âœ… åœ°é¢è½¨è¿¹é…ç½®æˆåŠŸ
2025-08-05 18:06:05,186 - src.stk_interface.stk_manager - INFO - âœ… å«æ˜Ÿåˆ›å»ºæˆåŠŸ: Satellite03
2025-08-05 18:06:05,302 - src.stk_interface.stk_manager - INFO - ğŸ”­ åˆ›å»ºä¼ æ„Ÿå™¨: Satellite03_Payload
2025-08-05 18:06:06,322 - src.stk_interface.stk_manager - INFO - âœ“ ä¼ æ„Ÿå™¨æ¨¡å¼è®¾ç½®ä¸ºåœ†é”¥
2025-08-05 18:06:06,552 - src.stk_interface.stk_manager - INFO - âœ“ è·å–Patternå¯¹è±¡æˆåŠŸï¼Œç±»å‹: <class 'win32com.client.CDispatch'>
2025-08-05 18:06:06,571 - src.stk_interface.stk_manager - INFO - âœ“ è®¾ç½®å¤–é”¥è§’æˆåŠŸ: 85.0Â°
2025-08-05 18:06:06,581 - src.stk_interface.stk_manager - INFO - âœ“ è®¾ç½®å†…é”¥è§’æˆåŠŸ: 66.1Â°
2025-08-05 18:06:06,605 - src.stk_interface.stk_manager - INFO - âœ“ è®¾ç½®æ—¶é’Ÿè§’çº¦æŸæˆåŠŸ: 0.0Â° - 360.0Â°
2025-08-05 18:06:06,607 - src.stk_interface.stk_manager - INFO - âœ… åœ†é”¥è§†åœºé…ç½®æˆåŠŸ
2025-08-05 18:06:06,650 - src.stk_interface.stk_manager - INFO - âœ… æŒ‡å‘å‚æ•°é…ç½®æˆåŠŸ
2025-08-05 18:06:07,231 - src.stk_interface.stk_manager - INFO - âœ“ è·ç¦»çº¦æŸè®¾ç½®æˆåŠŸ: 0-5000km
2025-08-05 18:06:07,236 - src.stk_interface.stk_manager - INFO - âœ… çº¦æŸå‚æ•°é…ç½®æˆåŠŸ
2025-08-05 18:06:07,237 - src.stk_interface.stk_manager - INFO - âœ… ä¼ æ„Ÿå™¨åˆ›å»ºæˆåŠŸ: Satellite03_Payload
2025-08-05 18:06:07,240 - src.constellation.constellation_manager - INFO - âœ… å«æ˜Ÿåˆ›å»ºæˆåŠŸ: Satellite03 (è½¨é“é¢1, ä½ç½®3)
2025-08-05 18:06:07,297 - src.stk_interface.stk_manager - INFO - ğŸ›°ï¸ åˆ›å»ºå«æ˜Ÿå¯¹è±¡: Satellite04
2025-08-05 18:06:09,325 - src.stk_interface.stk_manager - INFO - âœ… ä¼ æ’­å™¨ç±»å‹è®¾ç½®æˆåŠŸ
2025-08-05 18:06:09,326 - src.stk_interface.stk_manager - INFO - âœ… å‚æ•° semi_axis = 8171.0 éªŒè¯é€šè¿‡
2025-08-05 18:06:09,326 - src.stk_interface.stk_manager - INFO - âœ… å‚æ•° eccentricity = 0.0 éªŒè¯é€šè¿‡
2025-08-05 18:06:09,326 - src.stk_interface.stk_manager - INFO - âœ… å‚æ•° inclination = 51.856 éªŒè¯é€šè¿‡
2025-08-05 18:06:09,326 - src.stk_interface.stk_manager - INFO - âœ… å‚æ•° raan = 120.0 éªŒè¯é€šè¿‡
2025-08-05 18:06:09,327 - src.stk_interface.stk_manager - INFO - âœ… å‚æ•° arg_of_perigee = 0.0 éªŒè¯é€šè¿‡
2025-08-05 18:06:09,327 - src.stk_interface.stk_manager - INFO - âœ… å‚æ•° mean_anomaly = 40.0 éªŒè¯é€šè¿‡
2025-08-05 18:06:09,327 - src.stk_interface.stk_manager - INFO - ğŸ”„ ä½¿ç”¨Kepleriané«˜åº¦æ–¹æ³•...
2025-08-05 18:06:09,641 - src.stk_interface.stk_manager - INFO - âœ… Kepleriané«˜åº¦æ–¹æ³•æˆåŠŸ
2025-08-05 18:06:09,741 - src.stk_interface.stk_manager - INFO - âœ… åœ°é¢è½¨è¿¹é…ç½®æˆåŠŸ
2025-08-05 18:06:09,748 - src.stk_interface.stk_manager - INFO - âœ… å«æ˜Ÿåˆ›å»ºæˆåŠŸ: Satellite04
2025-08-05 18:06:09,852 - src.stk_interface.stk_manager - INFO - ğŸ”­ åˆ›å»ºä¼ æ„Ÿå™¨: Satellite04_Payload
2025-08-05 18:06:10,869 - src.stk_interface.stk_manager - INFO - âœ“ ä¼ æ„Ÿå™¨æ¨¡å¼è®¾ç½®ä¸ºåœ†é”¥
2025-08-05 18:06:11,085 - src.stk_interface.stk_manager - INFO - âœ“ è·å–Patternå¯¹è±¡æˆåŠŸï¼Œç±»å‹: <class 'win32com.client.CDispatch'>
2025-08-05 18:06:11,096 - src.stk_interface.stk_manager - INFO - âœ“ è®¾ç½®å¤–é”¥è§’æˆåŠŸ: 85.0Â°
2025-08-05 18:06:11,107 - src.stk_interface.stk_manager - INFO - âœ“ è®¾ç½®å†…é”¥è§’æˆåŠŸ: 66.1Â°
2025-08-05 18:06:11,134 - src.stk_interface.stk_manager - INFO - âœ“ è®¾ç½®æ—¶é’Ÿè§’çº¦æŸæˆåŠŸ: 0.0Â° - 360.0Â°
2025-08-05 18:06:11,137 - src.stk_interface.stk_manager - INFO - âœ… åœ†é”¥è§†åœºé…ç½®æˆåŠŸ
2025-08-05 18:06:11,185 - src.stk_interface.stk_manager - INFO - âœ… æŒ‡å‘å‚æ•°é…ç½®æˆåŠŸ
2025-08-05 18:06:11,766 - src.stk_interface.stk_manager - INFO - âœ“ è·ç¦»çº¦æŸè®¾ç½®æˆåŠŸ: 0-5000km
2025-08-05 18:06:11,771 - src.stk_interface.stk_manager - INFO - âœ… çº¦æŸå‚æ•°é…ç½®æˆåŠŸ
2025-08-05 18:06:11,771 - src.stk_interface.stk_manager - INFO - âœ… ä¼ æ„Ÿå™¨åˆ›å»ºæˆåŠŸ: Satellite04_Payload
2025-08-05 18:06:11,775 - src.constellation.constellation_manager - INFO - âœ… å«æ˜Ÿåˆ›å»ºæˆåŠŸ: Satellite04 (è½¨é“é¢2, ä½ç½®1)
2025-08-05 18:06:11,829 - src.stk_interface.stk_manager - INFO - ğŸ›°ï¸ åˆ›å»ºå«æ˜Ÿå¯¹è±¡: Satellite05
2025-08-05 18:06:13,855 - src.stk_interface.stk_manager - INFO - âœ… ä¼ æ’­å™¨ç±»å‹è®¾ç½®æˆåŠŸ
2025-08-05 18:06:13,855 - src.stk_interface.stk_manager - INFO - âœ… å‚æ•° semi_axis = 8171.0 éªŒè¯é€šè¿‡
2025-08-05 18:06:13,855 - src.stk_interface.stk_manager - INFO - âœ… å‚æ•° eccentricity = 0.0 éªŒè¯é€šè¿‡
2025-08-05 18:06:13,855 - src.stk_interface.stk_manager - INFO - âœ… å‚æ•° inclination = 51.856 éªŒè¯é€šè¿‡
2025-08-05 18:06:13,855 - src.stk_interface.stk_manager - INFO - âœ… å‚æ•° raan = 120.0 éªŒè¯é€šè¿‡
2025-08-05 18:06:13,855 - src.stk_interface.stk_manager - INFO - âœ… å‚æ•° arg_of_perigee = 0.0 éªŒè¯é€šè¿‡
2025-08-05 18:06:13,855 - src.stk_interface.stk_manager - INFO - âœ… å‚æ•° mean_anomaly = 160.0 éªŒè¯é€šè¿‡
2025-08-05 18:06:13,856 - src.stk_interface.stk_manager - INFO - ğŸ”„ ä½¿ç”¨Kepleriané«˜åº¦æ–¹æ³•...
2025-08-05 18:06:14,237 - src.stk_interface.stk_manager - INFO - âœ… Kepleriané«˜åº¦æ–¹æ³•æˆåŠŸ
2025-08-05 18:06:14,349 - src.stk_interface.stk_manager - INFO - âœ… åœ°é¢è½¨è¿¹é…ç½®æˆåŠŸ
2025-08-05 18:06:14,358 - src.stk_interface.stk_manager - INFO - âœ… å«æ˜Ÿåˆ›å»ºæˆåŠŸ: Satellite05
2025-08-05 18:06:14,475 - src.stk_interface.stk_manager - INFO - ğŸ”­ åˆ›å»ºä¼ æ„Ÿå™¨: Satellite05_Payload
2025-08-05 18:06:15,499 - src.stk_interface.stk_manager - INFO - âœ“ ä¼ æ„Ÿå™¨æ¨¡å¼è®¾ç½®ä¸ºåœ†é”¥
2025-08-05 18:06:15,723 - src.stk_interface.stk_manager - INFO - âœ“ è·å–Patternå¯¹è±¡æˆåŠŸï¼Œç±»å‹: <class 'win32com.client.CDispatch'>
2025-08-05 18:06:15,735 - src.stk_interface.stk_manager - INFO - âœ“ è®¾ç½®å¤–é”¥è§’æˆåŠŸ: 85.0Â°
2025-08-05 18:06:15,750 - src.stk_interface.stk_manager - INFO - âœ“ è®¾ç½®å†…é”¥è§’æˆåŠŸ: 66.1Â°
2025-08-05 18:06:15,775 - src.stk_interface.stk_manager - INFO - âœ“ è®¾ç½®æ—¶é’Ÿè§’çº¦æŸæˆåŠŸ: 0.0Â° - 360.0Â°
2025-08-05 18:06:15,778 - src.stk_interface.stk_manager - INFO - âœ… åœ†é”¥è§†åœºé…ç½®æˆåŠŸ
2025-08-05 18:06:15,826 - src.stk_interface.stk_manager - INFO - âœ… æŒ‡å‘å‚æ•°é…ç½®æˆåŠŸ
2025-08-05 18:06:16,447 - src.stk_interface.stk_manager - INFO - âœ“ è·ç¦»çº¦æŸè®¾ç½®æˆåŠŸ: 0-5000km
